{
  "type": "FeatureCollection",
  "features": [
    {
      "type": "Feature",
      "properties": {
        "norad_id": 33765,
        "name": "COSMOS 2251 DEB",
        "group": "cosmos-2251-debris",
        "lat": 72.90225555329457,
        "lon": -96.86796890770653,
        "alt_km": 574.8827053731493,
        "timestamp": "2025-12-02T10:50:47.668045+00:00",
        "meta_object_name": "COSMOS 2251 DEB",
        "meta_object_id": "1993-036N",
        "meta_epoch": "2025-12-02T01:39:22.532256",
        "meta_mean_motion": 15.08927895,
        "meta_eccentricity": 0.0068116,
        "meta_inclination": 74.0115,
        "meta_ra_of_asc_node": 195.1498,
        "meta_arg_of_pericenter": 289.1476,
        "meta_mean_anomaly": 235.1718,
        "meta_ephemeris_type": 0,
        "meta_classification_type": "U",
        "meta_norad_cat_id": 33765,
        "meta_element_set_no": 999,
        "meta_rev_at_epoch": 89457,
        "meta_bstar": 0.0024454,
        "meta_mean_motion_dot": 0.0004093,
        "meta_mean_motion_ddot": 0,
        "tle_line1": "1 33765U 93036N   25336.06901079  .00040930  00000+0  24454-2 0  9992",
        "tle_line2": "2 33765  74.0115 195.1498 0068116 289.1476 235.1718 15.08927895894574"
      },
      "geometry": {
        "type": "Point",
        "coordinates": [
          -96.86796890770653,
          72.90225555329457
        ]
      }
    },
    {
      "type": "Feature",
      "properties": {
        "norad_id": 33766,
        "name": "COSMOS 2251 DEB",
        "group": "cosmos-2251-debris",
        "lat": 3.3712509218087496,
        "lon": -27.29659703101407,
        "alt_km": 823.0227394780504,
        "timestamp": "2025-12-02T10:50:47.668056+00:00",
        "meta_object_name": "COSMOS 2251 DEB",
        "meta_object_id": "1993-036P",
        "meta_epoch": "2025-12-01T22:18:52.346592",
        "meta_mean_motion": 14.34884049,
        "meta_eccentricity": 0.0063593,
        "meta_inclination": 74.1844,
        "meta_ra_of_asc_node": 154.608,
        "meta_arg_of_pericenter": 1.065,
        "meta_mean_anomaly": 359.0626,
        "meta_ephemeris_type": 0,
        "meta_classification_type": "U",
        "meta_norad_cat_id": 33766,
        "meta_element_set_no": 999,
        "meta_rev_at_epoch": 87590,
        "meta_bstar": 0.00052217,
        "meta_mean_motion_dot": 1.493e-05,
        "meta_mean_motion_ddot": 0,
        "tle_line1": "1 33766U 93036P   25335.92977253  .00001493  00000+0  52217-3 0  9994",
        "tle_line2": "2 33766  74.1844 154.6080 0063593   1.0650 359.0626 14.34884049875902"
      },
      "geometry": {
        "type": "Point",
        "coordinates": [
          -27.29659703101407,
          3.3712509218087496
        ]
      }
    },
    {
      "type": "Feature",
      "properties": {
        "norad_id": 33768,
        "name": "COSMOS 2251 DEB",
        "group": "cosmos-2251-debris",
        "lat": 51.39489570892781,
        "lon": -102.57009005380178,
        "alt_km": 777.0630125210255,
        "timestamp": "2025-12-02T10:50:47.668067+00:00",
        "meta_object_name": "COSMOS 2251 DEB",
        "meta_object_id": "1993-036R",
        "meta_epoch": "2025-12-02T04:14:44.358720",
        "meta_mean_motion": 13.58440474,
        "meta_eccentricity": 0.0365792,
        "meta_inclination": 74.0687,
        "meta_ra_of_asc_node": 236.9131,
        "meta_arg_of_pericenter": 36.9922,
        "meta_mean_anomaly": 111.6339,
        "meta_ephemeris_type": 0,
        "meta_classification_type": "U",
        "meta_norad_cat_id": 33768,
        "meta_element_set_no": 999,
        "meta_rev_at_epoch": 83152,
        "meta_bstar": 0.00041381,
        "meta_mean_motion_dot": 4.47e-06,
        "meta_mean_motion_ddot": 0,
        "tle_line1": "1 33768U 93036R   25336.17690230  .00000447  00000+0  41381-3 0  9999",
        "tle_line2": "2 33768  74.0687 236.9131 0365792  36.9922 111.6339 13.58440474831522"
      },
      "geometry": {
        "type": "Point",
        "coordinates": [
          -102.57009005380178,
          51.39489570892781
        ]
      }
    },
    {
      "type": "Feature",
      "properties": {
        "norad_id": 33779,
        "name": "COSMOS 2251 DEB",
        "group": "cosmos-2251-debris",
        "lat": -65.2283610609807,
        "lon": 152.35111150260406,
        "alt_km": 661.7821583911909,
        "timestamp": "2025-12-02T10:50:47.668078+00:00",
        "meta_object_name": "COSMOS 2251 DEB",
        "meta_object_id": "1993-036U",
        "meta_epoch": "2025-12-02T00:16:52.480992",
        "meta_mean_motion": 14.70129466,
        "meta_eccentricity": 0.0017938,
        "meta_inclination": 74.0445,
        "meta_ra_of_asc_node": 191.5182,
        "meta_arg_of_pericenter": 227.0656,
        "meta_mean_anomaly": 253.0885,
        "meta_ephemeris_type": 0,
        "meta_classification_type": "U",
        "meta_norad_cat_id": 33779,
        "meta_element_set_no": 999,
        "meta_rev_at_epoch": 88370,
        "meta_bstar": 0.0012782,
        "meta_mean_motion_dot": 7.684e-05,
        "meta_mean_motion_ddot": 0,
        "tle_line1": "1 33779U 93036U   25336.01171853  .00007684  00000+0  12782-2 0  9991",
        "tle_line2": "2 33779  74.0445 191.5182 0017938 227.0656 253.0885 14.70129466883705"
      },
      "geometry": {
        "type": "Point",
        "coordinates": [
          152.35111150260406,
          -65.2283610609807
        ]
      }
    },
    {
      "type": "Feature",
      "properties": {
        "norad_id": 33782,
        "name": "COSMOS 2251 DEB",
        "group": "cosmos-2251-debris",
        "lat": 68.1522635140341,
        "lon": -17.856606385920923,
        "alt_km": 745.6403628503622,
        "timestamp": "2025-12-02T10:50:47.668089+00:00",
        "meta_object_name": "COSMOS 2251 DEB",
        "meta_object_id": "1993-036X",
        "meta_epoch": "2025-12-02T03:54:24.846912",
        "meta_mean_motion": 14.40396203,
        "meta_eccentricity": 0.0020287,
        "meta_inclination": 74.0326,
        "meta_ra_of_asc_node": 297.1073,
        "meta_arg_of_pericenter": 3.7981,
        "meta_mean_anomaly": 12.1312,
        "meta_ephemeris_type": 0,
        "meta_classification_type": "U",
        "meta_norad_cat_id": 33782,
        "meta_element_set_no": 999,
        "meta_rev_at_epoch": 87974,
        "meta_bstar": 0.00052461,
        "meta_mean_motion_dot": 1.643e-05,
        "meta_mean_motion_ddot": 0,
        "tle_line1": "1 33782U 93036X   25336.16278758  .00001643  00000+0  52461-3 0  9991",
        "tle_line2": "2 33782  74.0326 297.1073 0020287   3.7981  12.1312 14.40396203879740"
      },
      "geometry": {
        "type": "Point",
        "coordinates": [
          -17.856606385920923,
          68.1522635140341
        ]
      }
    },
    {
      "type": "Feature",
      "properties": {
        "norad_id": 33785,
        "name": "COSMOS 2251 DEB",
        "group": "cosmos-2251-debris",
        "lat": -71.73799529747251,
        "lon": -38.60731450019301,
        "alt_km": 675.4713565363745,
        "timestamp": "2025-12-02T10:50:47.668100+00:00",
        "meta_object_name": "COSMOS 2251 DEB",
        "meta_object_id": "1993-036AA",
        "meta_epoch": "2025-12-01T17:52:08.905728",
        "meta_mean_motion": 14.70058621,
        "meta_eccentricity": 0.0021174,
        "meta_inclination": 73.8671,
        "meta_ra_of_asc_node": 81.4753,
        "meta_arg_of_pericenter": 24.1199,
        "meta_mean_anomaly": 95.2529,
        "meta_ephemeris_type": 0,
        "meta_classification_type": "U",
        "meta_norad_cat_id": 33785,
        "meta_element_set_no": 999,
        "meta_rev_at_epoch": 88345,
        "meta_bstar": 0.0019832,
        "meta_mean_motion_dot": 0.00011939,
        "meta_mean_motion_ddot": 0,
        "tle_line1": "1 33785U 93036AA  25335.74454752  .00011939  00000+0  19832-2 0  9990",
        "tle_line2": "2 33785  73.8671  81.4753 0021174  24.1199  95.2529 14.70058621883453"
      },
      "geometry": {
        "type": "Point",
        "coordinates": [
          -38.60731450019301,
          -71.73799529747251
        ]
      }
    },
    {
      "type": "Feature",
      "properties": {
        "norad_id": 33789,
        "name": "COSMOS 2251 DEB",
        "group": "cosmos-2251-debris",
        "lat": -34.35591235090685,
        "lon": -63.87122658754123,
        "alt_km": 764.1626295269289,
        "timestamp": "2025-12-02T10:50:47.668111+00:00",
        "meta_object_name": "COSMOS 2251 DEB",
        "meta_object_id": "1993-036AE",
        "meta_epoch": "2025-12-02T01:44:20.155200",
        "meta_mean_motion": 13.88754134,
        "meta_eccentricity": 0.0240521,
        "meta_inclination": 74.0634,
        "meta_ra_of_asc_node": 105.5093,
        "meta_arg_of_pericenter": 223.4798,
        "meta_mean_anomaly": 256.1767,
        "meta_ephemeris_type": 0,
        "meta_classification_type": "U",
        "meta_norad_cat_id": 33789,
        "meta_element_set_no": 999,
        "meta_rev_at_epoch": 84947,
        "meta_bstar": 0.00086284,
        "meta_mean_motion_dot": 1.287e-05,
        "meta_mean_motion_ddot": 0,
        "tle_line1": "1 33789U 93036AE  25336.07245550  .00001287  00000+0  86284-3 0  9996",
        "tle_line2": "2 33789  74.0634 105.5093 0240521 223.4798 256.1767 13.88754134849478"
      },
      "geometry": {
        "type": "Point",
        "coordinates": [
          -63.87122658754123,
          -34.35591235090685
        ]
      }
    }
  ]
}